NORAD_CAT_ID,OBJECT_NAME,OBJECT_TYPE,EPOCH,MEAN_MOTION,ECCENTRICITY,INCLINATION,RA_OF_ASC_NODE,ARG_OF_PERICENTER,MEAN_ANOMALY,BSTAR,MEAN_MOTION_DOT,MEAN_MOTION_DDOT,TLE_LINE0,TLE_LINE1,TLE_LINE2,SEMIMAJOR_AXIS,PERIOD,APOGEE,PERIGEE,DECAYED
50850.0,STARLINK-3312,PAYLOAD,2023-05-16 02:19:01,15.08834794,0.0001167,53.2185,76.6476,98.1742,261.9383,3.6868e-05,2.99e-06,0.0,0 STARLINK-3312,1 50850U 22001AZ  23136.09654026  .00000299  00000-0  36868-4 0  9995,2 50850  53.2185  76.6476 0001167  98.1742 261.9383 15.08834794 76820,6917.896,95.438,540.569,538.954,0.0
50850.0,STARLINK-3312,PAYLOAD,2023-05-16 19:48:15,15.08847958,0.0001241,53.2192,73.3741,108.2807,251.8321,-6.6e-05,-1.338e-05,0.0,0 STARLINK-3312,1 50850U 22001AZ  23136.82517598 -.00001338  00000-0 -66000-4 0  9996,2 50850  53.2192  73.3741 0001241 108.2807 251.8321 15.08847958 76933,6917.856,95.437,540.58,538.863,0.0
50850.0,STARLINK-3312,PAYLOAD,2023-05-17 02:09:47,15.08853088,0.0001151,53.2176,72.1902,91.6424,268.47,2.9915e-05,1.88e-06,0.0,0 STARLINK-3312,1 50850U 22001AZ  23137.09012840  .00000188  00000-0  29915-4 0  9990,2 50850  53.2176  72.1902 0001151  91.6424 268.4700 15.08853088 76971,6917.84,95.437,540.502,538.909,0.0
50850.0,STARLINK-3312,PAYLOAD,2023-05-18 02:00:34,15.08834951,0.0001111,53.2179,67.7273,119.6695,240.4407,9.819e-05,1.275e-05,0.0,0 STARLINK-3312,1 50850U 22001AZ  23138.08373480  .00001275  00000-0  98190-4 0  9999,2 50850  53.2179  67.7273 0001111 119.6695 240.4407 15.08834951 77122,6917.896,95.438,540.529,538.992,0.0
50850.0,STARLINK-3312,PAYLOAD,2023-05-18 05:11:20,15.08840357,0.0001078,53.2174,67.1359,92.0942,268.0173,5.9797e-05,6.64e-06,0.0,0 STARLINK-3312,1 50850U 22001AZ  23138.21621422  .00000664  00000-0  59797-4 0  9997,2 50850  53.2174  67.1359 0001078  92.0942 268.0173 15.08840357 76400,6917.879,95.438,540.49,538.999,0.0
50850.0,STARLINK-3312,PAYLOAD,2023-05-18 19:29:49,15.08837905,0.0001125,53.2178,64.4586,92.7302,267.3819,-6.1298e-05,-1.263e-05,0.0,0 STARLINK-3312,1 50850U 22001AZ  23138.81238087 -.00001263  00000-0 -61298-4 0  9991,2 50850  53.2178  64.4586 0001125  92.7302 267.3819 15.08837905 76499,6917.887,95.438,540.53,538.974,0.0
50850.0,STARLINK-3312,PAYLOAD,2023-05-19 03:26:45,15.08842371,0.0001107,53.2176,62.9732,88.841,271.2709,-3.8797e-06,-3.5e-06,0.0,0 STARLINK-3312,1 50850U 22001AZ  23139.14357640 -.00000350  00000-0 -38797-5 0  9990,2 50850  53.2176  62.9732 0001107  88.8410 271.2709 15.08842371 77282,6917.873,95.437,540.504,538.972,0.0
50850.0,STARLINK-3312,PAYLOAD,2023-05-20 01:42:08,15.08842429,0.00011,53.2182,58.8117,94.39,265.7218,5.3929e-05,5.71e-06,0.0,0 STARLINK-3312,1 50850U 22001AZ  23140.07093569  .00000571  00000-0  53929-4 0  9997,2 50850  53.2182  58.8117 0001100  94.3900 265.7218 15.08842429 76689,6917.873,95.437,540.499,538.977,0.0
50850.0,STARLINK-3312,PAYLOAD,2023-05-21 01:32:55,15.08849431,0.0001165,53.2185,54.3519,95.6015,264.511,0.00013684,1.891e-05,0.0,0 STARLINK-3312,1 50850U 22001AZ  23141.06452805  .00001891  00000-0  13684-3 0  9998,2 50850  53.2185  54.3519 0001165  95.6015 264.5110 15.08849431 77578,6917.852,95.437,540.522,538.911,0.0
50850.0,STARLINK-3312,PAYLOAD,2023-05-22 01:23:44,15.08828773,0.0001382,53.2178,49.8949,127.4232,232.6886,-6.2145e-05,-1.276e-05,0.0,0 STARLINK-3312,1 50850U 22001AZ  23142.05815248 -.00001276  00000-0 -62145-4 0  9998,2 50850  53.2178  49.8949 0001382 127.4232 232.6886 15.08828773 77721,6917.915,95.438,540.736,538.824,0.0
50850.0,STARLINK-3312,PAYLOAD,2023-05-22 10:56:02,15.08837129,0.0001127,53.2181,48.1081,111.4975,248.6137,-2.8284e-06,-3.33e-06,0.0,0 STARLINK-3312,1 50850U 22001AZ  23142.45558775 -.00000333  00000-0 -28284-5 0  9991,2 50850  53.2181  48.1081 0001127 111.4975 248.6137 15.08837129 77785,6917.889,95.438,540.534,538.975,0.0
50850.0,STARLINK-3312,PAYLOAD,2023-05-22 20:28:20,15.0885045,0.0001005,53.2182,46.3217,109.8778,250.2322,5.3638e-05,5.66e-06,0.0,0 STARLINK-3312,1 50850U 22001AZ  23142.85301828  .00000566  00000-0  53638-4 0  9996,2 50850  53.2182  46.3217 0001005 109.8778 250.2322 15.08850450 77107,6917.848,95.437,540.409,539.018,0.0
50850.0,STARLINK-3312,PAYLOAD,2023-05-23 02:49:53,15.08855809,0.0001119,53.2174,45.1319,117.3457,242.765,0.00031587,4.745e-05,0.0,0 STARLINK-3312,1 50850U 22001AZ  23143.11797662  .00004745  00000-0  31587-3 0  9992,2 50850  53.2174  45.1319 0001119 117.3457 242.7650 15.08855809 77880,6917.832,95.437,540.471,538.923,0.0
50850.0,STARLINK-3312,PAYLOAD,2023-05-23 23:29:54,15.08843204,0.0001169,53.2172,41.2663,101.8987,258.2136,0.00027287,4.058e-05,0.0,0 STARLINK-3312,1 50850U 22001AZ  23143.97910738  .00004058  00000-0  27287-3 0  9996,2 50850  53.2172  41.2663 0001169 101.8987 258.2136 15.08843204 78011,6917.871,95.437,540.544,538.927,0.0
50850.0,STARLINK-3312,PAYLOAD,2023-05-25 21:36:05,15.08839981,0.0001165,53.2178,32.6396,108.9179,251.1939,0.00034318,5.178e-05,0.0,0 STARLINK-3312,1 50850U 22001AZ  23145.90006639  .00005178  00000-0  34318-3 0  9994,2 50850  53.2178  32.6396 0001165 108.9179 251.1939 15.08839981 77560,6917.88,95.438,540.551,538.94,0.0
50850.0,STARLINK-3312,PAYLOAD,2023-05-26 02:22:15,15.08840507,0.0001208,53.2178,31.748,105.869,254.2436,0.00043279,6.607e-05,0.0,0 STARLINK-3312,1 50850U 22001AZ  23146.09878620  .00006607  00000-0  43279-3 0  9996,2 50850  53.2178  31.7480 0001208 105.8690 254.2436 15.08840507 78334,6917.879,95.438,540.58,538.908,0.0
50850.0,STARLINK-3312,PAYLOAD,2023-05-26 16:40:43,15.08837062,0.0001124,53.2178,29.0697,99.8855,260.2264,2.4841e-05,1.08e-06,0.0,0 STARLINK-3312,1 50850U 22001AZ  23146.69494764  .00000108  00000-0  24841-4 0  9990,2 50850  53.2178  29.0697 0001124  99.8855 260.2264 15.08837062 78424,6917.889,95.438,540.532,538.977,0.0
50850.0,STARLINK-3312,PAYLOAD,2023-05-26 21:26:52,15.08840306,0.0001228,53.2176,28.1769,106.3536,253.7591,2.3945e-05,9.3e-07,0.0,0 STARLINK-3312,1 50850U 22001AZ  23146.89366498  .00000093  00000-0  23945-4 0  9991,2 50850  53.2176  28.1769 0001228 106.3536 253.7591 15.08840306 77713,6917.879,95.438,540.594,538.895,0.0
50850.0,STARLINK-3312,PAYLOAD,2023-05-27 19:42:16,15.08836899,0.0001129,53.2175,24.0189,96.5234,263.5887,-4.1258e-05,-9.44e-06,0.0,0 STARLINK-3312,1 50850U 22001AZ  23147.82102907 -.00000944  00000-0 -41258-4 0  9992,2 50850  53.2175  24.0189 0001129  96.5234 263.5887 15.08836899 78594,6917.89,95.438,540.536,538.974,0.0
50850.0,STARLINK-3312,PAYLOAD,2023-05-27 22:53:03,15.08839932,0.0001108,53.2174,23.4249,100.1674,259.9443,-2.4358e-06,-3.27e-06,0.0,0 STARLINK-3312,1 50850U 22001AZ  23147.95350759 -.00000327  00000-0 -24358-5 0  9994,2 50850  53.2174  23.4249 0001108 100.1674 259.9443 15.08839932 77878,6917.881,95.438,540.512,538.979,0.0
50850.0,STARLINK-3312,PAYLOAD,2023-05-28 21:08:26,15.08843894,0.0001104,53.2173,19.2619,101.499,258.6126,0.00016172,2.287e-05,0.0,0 STARLINK-3312,1 50850U 22001AZ  23148.88086746  .00002287  00000-0  16172-3 0  9997,2 50850  53.2173  19.2619 0001104 101.4990 258.6126 15.08843894 78756,6917.868,95.437,540.497,538.97,0.0
50850.0,STARLINK-3312,PAYLOAD,2023-05-29 00:19:13,15.08848109,0.000111,53.2174,18.6672,101.2826,258.8291,0.00021665,3.163e-05,0.0,0 STARLINK-3312,1 50850U 22001AZ  23149.01334527  .00003163  00000-0  21665-3 0  9993,2 50850  53.2174  18.6672 0001110 101.2826 258.8291 15.08848109 78032,6917.856,95.437,540.488,538.953,0.0
50850.0,STARLINK-3312,PAYLOAD,2023-05-29 20:59:14,15.08836433,0.0001234,53.2182,14.8025,106.1949,253.9179,-9.7249e-06,-4.43e-06,0.0,0 STARLINK-3312,1 50850U 22001AZ  23149.87447256 -.00000443  00000-0 -97249-5 0  9994,2 50850  53.2182  14.8025 0001234 106.1949 253.9179 15.08836433 78160,6917.891,95.438,540.61,538.903,0.0
50850.0,STARLINK-3312,PAYLOAD,2023-05-30 00:10:00,15.08835147,0.0001246,53.2176,14.2064,84.9674,275.1461,-1.6372e-05,-5.48e-06,0.0,0 STARLINK-3312,1 50850U 22001AZ  23150.00695432 -.00000548  00000-0 -16372-4 0  9995,2 50850  53.2176  14.2064 0001246  84.9674 275.1461 15.08835147 78926,6917.895,95.438,540.622,538.898,0.0
50850.0,STARLINK-3312,PAYLOAD,2023-05-30 19:14:38,15.08845593,0.0001234,53.2178,10.6363,89.9958,270.1175,8.6524e-05,1.09e-05,0.0,0 STARLINK-3312,1 50850U 22001AZ  23150.80182933  .00001090  00000-0  86524-4 0  9997,2 50850  53.2178  10.6363 0001234  89.9958 270.1175 15.08845593 79044,6917.863,95.437,540.582,538.875,0.0
50850.0,STARLINK-3312,PAYLOAD,2023-05-30 22:25:24,15.08848183,0.000115,53.2173,10.0415,96.3708,263.7415,0.00012785,1.748e-05,0.0,0 STARLINK-3312,1 50850U 22001AZ  23150.93430729  .00001748  00000-0  12785-3 0  9997,2 50850  53.2173  10.0415 0001150  96.3708 263.7415 15.08848183 78326,6917.855,95.437,540.516,538.925,0.0
50850.0,STARLINK-3312,PAYLOAD,2023-05-31 20:40:48,15.088432,0.0001069,53.2177,5.8796,88.6976,271.4139,0.0001149,1.541e-05,0.0,0 STARLINK-3312,1 50850U 22001AZ  23151.86166984  .00001541  00000-0  11490-3 0  9992,2 50850  53.2177   5.8796 0001069  88.6976 271.4139 15.08843200 78463,6917.871,95.437,540.475,538.996,0.0
50850.0,STARLINK-3312,PAYLOAD,2023-05-31 23:51:34,15.08846048,0.000109,53.217,5.2833,93.9938,266.1179,0.00016717,2.374e-05,0.0,0 STARLINK-3312,1 50850U 22001AZ  23151.99414845  .00002374  00000-0  16717-3 0  9990,2 50850  53.2170   5.2833 0001090  93.9938 266.1179 15.08846048 79226,6917.862,95.437,540.481,538.973,0.0
50850.0,STARLINK-3312,PAYLOAD,2023-06-01 20:31:35,15.088438,0.0001146,53.2161,1.4176,90.4603,269.652,1.1314e-05,-1.08e-06,0.0,0 STARLINK-3312,1 50850U 22001AZ  23152.85526928 -.00000108  00000-0  11314-4 0  9995,2 50850  53.2161   1.4176 0001146  90.4603 269.6520 15.08843800 79352,6917.869,95.437,540.527,538.941,0.0
50850.0,STARLINK-3312,PAYLOAD,2023-06-02 18:46:59,15.08837839,0.0001006,53.2183,357.2563,101.2937,258.8168,-8.9262e-06,-4.3e-06,0.0,0 STARLINK-3312,1 50850U 22001AZ  23153.78263654 -.00000430  00000-0 -89262-5 0  9999,2 50850  53.2183 357.2563 0001006 101.2937 258.8168 15.08837839 79492,6917.887,95.438,540.448,539.056,0.0
